OBJECT_NAME,OBJECT_ID,EPOCH,MEAN_MOTION,ECCENTRICITY,INCLINATION,RA_OF_ASC_NODE,ARG_OF_PERICENTER,MEAN_ANOMALY,EPHEMERIS_TYPE,CLASSIFICATION_TYPE,NORAD_CAT_ID,ELEMENT_SET_NO,REV_AT_EPOCH,BSTAR,MEAN_MOTION_DOT,MEAN_MOTION_DDOT
GSAT-29,2018-089A,2026-07-09T16:54:38.749824,1.00274112,.0003093,0.0572,256.0581,186.6979,153.6087,0,U,43698,999,2801,0,.97E-6,0
ES'HAIL 2,2018-090A,2026-07-09T18:54:30.714336,1.00268076,.0002089,0.0161,349.4100,163.6570,84.0928,0,U,43700,999,2790,0,.156E-5,0
GEO-KOMPSAT-2A,2018-100A,2026-07-09T19:23:41.427168,1.00272501,.0002025,0.0256,133.4226,327.1108,246.3920,0,U,43823,999,2785,0,-.331E-5,0
GSAT-11,2018-100B,2026-07-09T18:22:38.406720,1.00270977,.000774,0.0633,263.8012,192.8868,180.6819,0,U,43824,999,2770,0,-.65E-6,0
GSAT-7A,2018-105A,2026-07-09T19:04:58.221120,1.00269845,.0001713,0.0704,92.6128,14.1659,169.9541,0,U,43864,999,2767,0,.39E-6,0
COSMOS 2533,2018-107A,2026-07-09T20:49:43.510080,1.00269044,.0000306,0.0399,120.6828,72.6787,116.8595,0,U,43867,999,2767,0,-.26E-6,0
TJS-3,2018-110A,2026-07-09T17:31:17.150304,1.00273194,.0002466,2.5997,80.2214,87.1769,171.2884,0,U,43874,999,2764,0,-.206E-5,0
ZHONGXING-2D,2019-001A,2026-07-09T21:06:47.649888,1.00273824,.0000365,0.0615,245.4474,116.2023,12.8286,0,U,43920,999,5430,0,-.325E-5,0
HELLAS-SAT 4 & SGS-1,2019-007A,2026-07-09T13:50:15.569376,1.00272065,.0005777,0.0661,129.3917,17.8080,26.8964,0,U,44034,999,2759,0,.165E-5,0
GSAT-31,2019-007B,2026-07-09T17:18:05.987232,1.00271405,.000059,0.0162,47.4302,192.3314,355.3142,0,U,44035,999,2719,0,0,0
NUSANTARA SATU,2019-009A,2026-07-09T15:02:38.621760,1.00271835,.0004709,0.0338,130.7710,357.9975,170.4586,0,U,44048,999,2699,0,-.222E-5,0
ZHONGXING-6C,2019-012A,2026-07-09T21:06:55.137312,1.00273799,.0014752,0.0771,72.9629,340.7295,321.2923,0,U,44067,999,2696,0,-.323E-5,0
WGS 10 (USA 291),2019-014A,2026-07-09T19:04:20.782272,1.00269829,.0000304,0.0192,42.4579,186.9938,44.6635,0,U,44071,999,2684,0,.59E-6,0
TIANLIAN 2-01,2019-017A,2026-07-09T18:22:38.406720,1.00271068,.0001405,0.5951,83.0747,75.2253,122.0829,0,U,44076,999,2687,0,-.95E-6,0
ARABSAT-6A,2019-021A,2026-07-09T17:13:06.466080,1.00275682,.0001207,0.0454,9.5273,271.8347,295.0573,0,U,44186,999,2638,0,.166E-5,0
BEIDOU-3 IGSO-1,2019-023A,2026-07-08T11:34:14.074176,1.00285216,.00255829,58.7247,37.4318,224.0549,317.4664,0,U,44204,999,742,0,-.209E-5,0
BEIDOU-2 G8,2019-027A,2026-07-09T21:11:02.243040,1.00273683,.0009819,1.7119,74.5132,283.6859,31.8804,0,U,44231,999,2630,0,-.236E-5,0
YAMAL 601,2019-031A,2026-07-09T20:43:44.084352,1.00272132,.0002281,0.0250,49.6136,62.5058,175.6140,0,U,44307,999,2615,0,0,0
AT&T T-16,2019-034A,2026-07-09T13:10:26.884992,1.00264479,.0001094,0.0137,65.4216,264.6613,54.1523,0,U,44333,999,2585,0,-.101E-5,0
EUTELSAT 7C,2019-034B,2026-07-09T18:49:08.729184,1.00270410,.0003205,0.0755,180.1710,275.1682,121.6791,0,U,44334,999,706,0,.61E-6,0
BEIDOU-3 IGSO-2,2019-035A,2026-07-09T19:21:11.665728,1.00259225,.0039608,55.2507,158.6648,216.2821,321.9033,0,U,44337,999,2589,0,-.82E-6,0
COSMOS 2539,2019-048A,2026-07-09T20:32:50.972928,1.00267544,.0000279,0.0331,101.3019,84.0585,62.6323,0,U,44457,999,2545,0,.92E-6,0
EDRS-C,2019-049A,2026-07-09T19:27:48.532032,1.00268574,.0000885,0.0080,74.6841,43.0566,244.4379,0,U,44475,999,2543,0,-.25E-5,0
INTELSAT 39 (IS-39),2019-049B,2026-07-09T19:04:50.732832,1.00269712,.0000605,0.0252,33.4013,262.3959,340.0879,0,U,44476,999,2535,0,0,0
AMOS-17,2019-050A,2026-07-09T18:52:00.952896,1.00271505,.0001358,0.0182,342.2847,130.6794,114.7334,0,U,44479,999,2541,0,.121E-5,0
AEHF-5 (USA 292),2019-051A,2026-07-09T19:13:34.894848,1.00276088,.0064994,1.4361,337.9257,358.0585,333.1401,0,U,44481,999,2548,0,-.245E-5,0
EUTELSAT 5 WEST B,2019-067A,2026-07-09T18:45:46.552320,1.00271310,.0003058,0.0637,345.8887,124.5044,93.7597,0,U,44624,999,2466,0,-.3E-6,0
MEV-1,2019-067B,2026-06-16T22:18:40.152960,1.00269616,.00027946,0.8740,268.9828,179.8034,307.2103,0,U,44625,999,6174,0,-.149E-5,0
TJS-4,2019-070A,2026-07-09T14:02:56.704128,1.00270106,.0003371,0.0692,87.1620,320.6182,174.0203,0,U,44637,999,2476,0,-.157E-5,0
TIBA-1,2019-080A,2026-07-09T18:57:12.962304,1.00268148,.0001909,0.0501,0.0684,119.6961,127.7690,0,U,44800,999,2428,0,.168E-5,0
INMARSAT GX5,2019-080B,2026-07-09T18:50:16.121184,1.00271845,.0002044,0.0389,25.7341,79.6341,115.9321,0,U,44801,999,701,0,.87E-6,0
JCSAT-18 (KACIFIC 1),2019-091A,2026-07-09T17:47:15.658080,1.00271633,.0000413,0.0478,230.6356,2.8482,111.0017,0,U,44868,999,2423,0,-.188E-5,0
