GSAT-29                 
1 43698U 18089A   26190.70461516  .00000097  00000+0  00000+0 0  9998
2 43698   0.0572 256.0581 0003093 186.6979 153.6087  1.00274112 28013
ES'HAIL 2               
1 43700U 18090A   26190.78785549  .00000156  00000+0  00000+0 0  9993
2 43700   0.0161 349.4100 0002089 163.6570  84.0928  1.00268076 27901
GEO-KOMPSAT-2A          
1 43823U 18100A   26190.80811837 -.00000331  00000+0  00000+0 0  9990
2 43823   0.0256 133.4226 0002025 327.1108 246.3920  1.00272501 27853
GSAT-11                 
1 43824U 18100B   26190.76572230 -.00000065  00000+0  00000+0 0  9991
2 43824   0.0633 263.8012 0007740 192.8868 180.6819  1.00270977 27709
GSAT-7A                 
1 43864U 18105A   26190.79511830  .00000039  00000+0  00000+0 0  9992
2 43864   0.0704  92.6128 0001713  14.1659 169.9541  1.00269845 27676
COSMOS 2533             
1 43867U 18107A   26190.86786470 -.00000026  00000+0  00000+0 0  9996
2 43867   0.0399 120.6828 0000306  72.6787 116.8595  1.00269044 27677
TJS-3                   
1 43874U 18110A   26190.73005961 -.00000206  00000+0  00000+0 0  9993
2 43874   2.5997  80.2214 0002466  87.1769 171.2884  1.00273194 27640
ZHONGXING-2D            
1 43920U 19001A   26190.87971817 -.00000325  00000+0  00000+0 0  9994
2 43920   0.0615 245.4474 0000365 116.2023  12.8286  1.00273824 54307
HELLAS-SAT 4 & SGS-1    
1 44034U 19007A   26190.57656909  .00000165  00000+0  00000+0 0  9997
2 44034   0.0661 129.3917 0005777  17.8080  26.8964  1.00272065 27593
GSAT-31                 
1 44035U 19007B   26190.72090263  .00000000  00000+0  00000+0 0  9998
2 44035   0.0162  47.4302 0000590 192.3314 355.3142  1.00271405 27196
NUSANTARA SATU          
1 44048U 19009A   26190.62683590 -.00000222  00000+0  00000+0 0  9991
2 44048   0.0338 130.7710 0004709 357.9975 170.4586  1.00271835 26994
ZHONGXING-6C            
1 44067U 19012A   26190.87980483 -.00000323  00000+0  00000+0 0  9996
2 44067   0.0771  72.9629 0014752 340.7295 321.2923  1.00273799 26965
WGS 10 (USA 291)        
1 44071U 19014A   26190.79468498  .00000059  00000+0  00000+0 0  9996
2 44071   0.0192  42.4579 0000304 186.9938  44.6635  1.00269829 26847
TIANLIAN 2-01           
1 44076U 19017A   26190.76572230 -.00000095  00000+0  00000+0 0  9992
2 44076   0.5951  83.0747 0001405  75.2253 122.0829  1.00271068 26878
ARABSAT-6A              
1 44186U 19021A   26190.71743595  .00000166  00000+0  00000+0 0  9996
2 44186   0.0454   9.5273 0001207 271.8347 295.0573  1.00275682 26387
BEIDOU-3 IGSO-1         
1 44204U 19023A   26189.48210734 -.00000209  00000+0  00000+0 0  9994
2 44204  58.7247  37.4318 0025582 224.0549 317.4664  1.00285216  7422
BEIDOU-2 G8             
1 44231U 19027A   26190.88266485 -.00000236  00000+0  00000+0 0  9998
2 44231   1.7119  74.5132 0009819 283.6859  31.8804  1.00273683 26300
YAMAL 601               
1 44307U 19031A   26190.86370468  .00000000  00000+0  00000+0 0  9990
2 44307   0.0250  49.6136 0002281  62.5058 175.6140  1.00272132 26151
AT&T T-16               
1 44333U 19034A   26190.54892228 -.00000101  00000+0  00000+0 0  9993
2 44333   0.0137  65.4216 0001094 264.6613  54.1523  1.00264479 25859
EUTELSAT 7C             
1 44334U 19034B   26190.78412881  .00000061  00000+0  00000+0 0  9997
2 44334   0.0755 180.1710 0003205 275.1682 121.6791  1.00270410  7061
BEIDOU-3 IGSO-2         
1 44337U 19035A   26190.80638502 -.00000082  00000+0  00000+0 0  9998
2 44337  55.2507 158.6648 0039608 216.2821 321.9033  1.00259225 25894
COSMOS 2539             
1 44457U 19048A   26190.85614552  .00000092  00000+0  00000+0 0  9999
2 44457   0.0331 101.3019 0000279  84.0585  62.6323  1.00267544 25453
EDRS-C                  
1 44475U 19049A   26190.81097838 -.00000250  00000+0  00000+0 0  9995
2 44475   0.0080  74.6841 0000885  43.0566 244.4379  1.00268574 25439
INTELSAT 39 (IS-39)     
1 44476U 19049B   26190.79503163  .00000000  00000+0  00000+0 0  9998
2 44476   0.0252  33.4013 0000605 262.3959 340.0879  1.00269712 25351
AMOS-17                 
1 44479U 19050A   26190.78612214  .00000121  00000+0  00000+0 0  9994
2 44479   0.0182 342.2847 0001358 130.6794 114.7334  1.00271505 25414
AEHF-5 (USA 292)        
1 44481U 19051A   26190.80109832 -.00000245  00000+0  00000+0 0  9996
2 44481   1.4361 337.9257 0064994 358.0585 333.1401  1.00276088 25486
EUTELSAT 5 WEST B       
1 44624U 19067A   26190.78178880 -.00000030  00000+0  00000+0 0  9990
2 44624   0.0637 345.8887 0003058 124.5044  93.7597  1.00271310 24660
MEV-1                   
1 44625U 19067B   26167.92963140 -.00000149  00000+0  00000+0 0  9993
2 44625   0.8740 268.9828 0002794 179.8034 307.2103  1.00269616 61744
TJS-4                   
1 44637U 19070A   26190.58537852 -.00000157  00000+0  00000+0 0  9994
2 44637   0.0692  87.1620 0003371 320.6182 174.0203  1.00270106 24766
TIBA-1                  
1 44800U 19080A   26190.78973336  .00000168  00000+0  00000+0 0  9991
2 44800   0.0501   0.0684 0001909 119.6961 127.7690  1.00268148 24282
INMARSAT GX5            
1 44801U 19080B   26190.78490881  .00000087  00000+0  00000+0 0  9991
2 44801   0.0389  25.7341 0002044  79.6341 115.9321  1.00271845  7019
JCSAT-18 (KACIFIC 1)    
1 44868U 19091A   26190.74115345 -.00000188  00000+0  00000+0 0  9994
2 44868   0.0478 230.6356 0000413   2.8482 111.0017  1.00271633 24233
